JY1SAT (JO-97)          
1 43803U 18099AX  26068.68634132  .00017774  00000+0  60804-3 0  9996
2 43803  97.4249 131.3625 0004723 256.6795 103.3919 15.30302628398390
STARLINK-35343          
1 67334U 26003A   26068.49539460  .00033727  00000+0  12290-2 0  9993
2 67334  43.0002 228.2092 0001671 271.3939  88.6721 15.27593914  8790
